[{"OBJECT_NAME":"TEVEL2-1","OBJECT_ID":"2025-052H","EPOCH":"2026-03-09T15:32:51.927072","MEAN_MOTION":15.30341923,"ECCENTRICITY":0.0004767,"INCLINATION":97.3991,"RA_OF_ASC_NODE":324.7682,"ARG_OF_PERICENTER":104.8919,"MEAN_ANOMALY":255.2849,"EPHEMERIS_TYPE":0,"CLASSIFICATION_TYPE":"U","NORAD_CAT_ID":63217,"ELEMENT_SET_NO":999,"REV_AT_EPOCH":5485,"BSTAR":0.000706,"MEAN_MOTION_DOT":0.00020683,"MEAN_MOTION_DDOT":0},{"OBJECT_NAME":"STARLINK-36081","OBJECT_ID":"2026-012F","EPOCH":"2026-03-09T01:22:57.161856","MEAN_MOTION":15.27575775,"ECCENTRICITY":0.00013471,"INCLINATION":42.9991,"RA_OF_ASC_NODE":318.1112,"ARG_OF_PERICENTER":275.9114,"MEAN_ANOMALY":84.1584,"EPHEMERIS_TYPE":0,"CLASSIFICATION_TYPE":"U","NORAD_CAT_ID":67498,"ELEMENT_SET_NO":999,"REV_AT_EPOCH":766,"BSTAR":0.001523546,"MEAN_MOTION_DOT":0.00041896,"MEAN_MOTION_DDOT":0}]
